0 COSMOS 2251 DEB
1 35075U 93036AJE 13281.00904978  .00013102  00000-0  21330-2 0  3119
2 35075 074.0119 036.1960 0065693 290.9441 068.6164 14.69623161237414
0 COSMOS 2251 DEB
1 35075U 93036AJE 13283.66375833  .00042579  00000-0  68835-2 0  3138
2 35075 074.0198 031.0235 0068437 282.8248 076.5768 14.69726204237807
0 COSMOS 2251 DEB
1 35075U 93036AJE 13283.66379562  .00014536  00000-0  23576-2 0  3125
2 35075 074.0207 030.9998 0066902 281.9216 077.6948 14.69712222237809
0 COSMOS 2251 DEB
1 35075U 93036AJE 13286.59061692  .00017273  00000-0  27939-2 0  3131
2 35075 074.0054 025.3163 0066074 279.1171 080.6085 14.69834031238237
0 COSMOS 2251 DEB
1 35075U 93036AJE 13289.58521745  .00021455  00000-0  34522-2 0  3147
2 35075 074.0265 019.5400 0066737 269.0726 090.7278 14.69987176238673
0 COSMOS 2251 DEB
1 35075U 93036AJE 13290.60595673  .00021884  00000-0  35068-2 0  3156
2 35075 074.0257 017.5469 0069518 268.1760 091.1841 14.70035833238829
0 COSMOS 2251 DEB
1 35075U 93036AJE 13293.53213548  .00024359  00000-0  38743-2 0  3163
2 35075 074.0089 011.8548 0072574 269.5339 089.9830 14.70193670239255
